{"type": "FeatureCollection", "features": [ {"type": "Feature", "properties": {"norad_id": 30071, "name": "FENGYUN 1C DEB", "group": "fengyun-1c-debris", "lat": 40.78859338565181, "lon": 72.94160150781501, "alt_km": 713.1179980213456, "timestamp": "2025-12-07T09:35:10.063906+00:00", "meta": {"OBJECT_NAME": "FENGYUN 1C DEB", "OBJECT_ID": "1999-025PY", "EPOCH": "2025-12-06T19:05:26.846304", "MEAN_MOTION": 14.51957157, "ECCENTRICITY": 0.00398467, "INCLINATION": 98.6594, "RA_OF_ASC_NODE": 79.875, "ARG_OF_PERICENTER": 127.7774, "MEAN_ANOMALY": 358.9417, "EPHEMERIS_TYPE": 0, "CLASSIFICATION_TYPE": "U", "NORAD_CAT_ID": 30071, "ELEMENT_SET_NO": 999, "REV_AT_EPOCH": 98140, "BSTAR": 0.0045315758, "MEAN_MOTION_DOT": 0.00018478, "MEAN_MOTION_DDOT": 0}, "tle": {"line1": "1 30071U 99025PY  25340.79544961  .00018478  00000+0  45316-2 0  9993", "line2": "2 30071  98.6594  79.8750 0039846 127.7774 358.9417 14.51957157981409"}}, "geometry": {"type": "Point", "coordinates": [72.94160150781501, 40.78859338565181]}}, {"type": "Feature", "properties": {"norad_id": 30072, "name": "FENGYUN 1C DEB", "group": "fengyun-1c-debris", "lat": -76.56944892348189, "lon": 171.3972403260241, "alt_km": 731.6974819768584, "timestamp": "2025-12-07T09:35:10.063916+00:00", "meta": {"OBJECT_NAME": "FENGYUN 1C DEB", "OBJECT_ID": "1999-025PZ", "EPOCH": "2025-12-06T22:15:43.299936", "MEAN_MOTION": 14.3760838, "ECCENTRICITY": 0.00592705, "INCLINATION": 99.0773, "RA_OF_ASC_NODE": 128.872, "ARG_OF_PERICENTER": 289.1518, "MEAN_ANOMALY": 70.3257, "EPHEMERIS_TYPE": 0, "CLASSIFICATION_TYPE": "U", "NORAD_CAT_ID": 30072, "ELEMENT_SET_NO": 999, "REV_AT_EPOCH": 97087, "BSTAR": 0.004959042, "MEAN_MOTION_DOT": 0.00015171, "MEAN_MOTION_DDOT": 0}, "tle": {"line1": "1 30072U 99025PZ  25340.92758449  .00015171  00000+0  49590-2 0  9992", "line2": "2 30072  99.0773 128.8720 0059270 289.1518  70.3257 14.37608380970879"}}, "geometry": {"type": "Point", "coordinates": [171.3972403260241, -76.56944892348189]}}, {"type": "Feature", "properties": {"norad_id": 30073, "name": "FENGYUN 1C DEB", "group": "fengyun-1c-debris", "lat": -14.725935170862591, "lon": 131.70575148622873, "alt_km": 841.8464645705608, "timestamp": "2025-12-07T09:35:10.063927+00:00", "meta": {"OBJECT_NAME": "FENGYUN 1C DEB", "OBJECT_ID": "1999-025QA", "EPOCH": "2025-12-06T09:42:01.902816", "MEAN_MOTION": 14.18603795, "ECCENTRICITY": 0.00541348, "INCLINATION": 99.4109, "RA_OF_ASC_NODE": 313.1489, "ARG_OF_PERICENTER": 298.5759, "MEAN_ANOMALY": 216.9943, "EPHEMERIS_TYPE": 0, "CLASSIFICATION_TYPE": "U", "NORAD_CAT_ID": 30073, "ELEMENT_SET_NO": 999, "REV_AT_EPOCH": 96835, "BSTAR": 0.0030999184, "MEAN_MOTION_DOT": 6.471e-05, "MEAN_MOTION_DDOT": 0}, "tle": {"line1": "1 30073U 99025QA  25340.40418869  .00006471  00000+0  30999-2 0  9991", "line2": "2 30073  99.4109 313.1489 0054134 298.5759 216.9943 14.18603795968357"}}, "geometry": {"type": "Point", "coordinates": [131.70575148622873, -14.725935170862591]}}, {"type": "Feature", "properties": {"norad_id": 30074, "name": "FENGYUN 1C DEB", "group": "fengyun-1c-debris", "lat": 59.59388869249314, "lon": 31.629761650850455, "alt_km": 862.3225977429001, "timestamp": "2025-12-07T09:35:10.063937+00:00", "meta": {"OBJECT_NAME": "FENGYUN 1C DEB", "OBJECT_ID": "1999-025QB", "EPOCH": "2025-12-05T23:18:03.892032", "MEAN_MOTION": 14.12797864, "ECCENTRICITY": 0.00976106, "INCLINATION": 99.1292, "RA_OF_ASC_NODE": 46.0768, "ARG_OF_PERICENTER": 170.5804, "MEAN_ANOMALY": 189.7227, "EPHEMERIS_TYPE": 0, "CLASSIFICATION_TYPE": "U", "NORAD_CAT_ID": 30074, "ELEMENT_SET_NO": 999, "REV_AT_EPOCH": 96566, "BSTAR": 0.0027772932, "MEAN_MOTION_DOT": 5.356e-05, "MEAN_MOTION_DDOT": 0}, "tle": {"line1": "1 30074U 99025QB  25339.97087838  .00005356  00000+0  27773-2 0  9997", "line2": "2 30074  99.1292  46.0768 0097610 170.5804 189.7227 14.12797864965664"}}, "geometry": {"type": "Point", "coordinates": [31.629761650850455, 59.59388869249314]}}, {"type": "Feature", "properties": {"norad_id": 30075, "name": "FENGYUN 1C DEB", "group": "fengyun-1c-debris", "lat": -6.188972752968275, "lon": -149.36731996117118, "alt_km": 857.3707342772295, "timestamp": "2025-12-07T09:35:10.063948+00:00", "meta": {"OBJECT_NAME": "FENGYUN 1C DEB", "OBJECT_ID": "1999-025QC", "EPOCH": "2025-12-06T21:28:33.376800", "MEAN_MOTION": 13.9253012, "ECCENTRICITY": 0.00908454, "INCLINATION": 99.3625, "RA_OF_ASC_NODE": 31.148, "ARG_OF_PERICENTER": 192.8106, "MEAN_ANOMALY": 345.2307, "EPHEMERIS_TYPE": 0, "CLASSIFICATION_TYPE": "U", "NORAD_CAT_ID": 30075, "ELEMENT_SET_NO": 999, "REV_AT_EPOCH": 95983, "BSTAR": 0.00033576781, "MEAN_MOTION_DOT": 4.02e-06, "MEAN_MOTION_DDOT": 0}, "tle": {"line1": "1 30075U 99025QC  25340.89483075  .00000402  00000+0  33577-3 0  9991", "line2": "2 30075  99.3625  31.1480 0090845 192.8106 345.2307 13.92530120959835"}}, "geometry": {"type": "Point", "coordinates": [-149.36731996117118, -6.188972752968275]}}, {"type": "Feature", "properties": {"norad_id": 30076, "name": "FENGYUN 1C DEB", "group": "fengyun-1c-debris", "lat": -15.958021114425968, "lon": 145.61570890718767, "alt_km": 975.3489538205486, "timestamp": "2025-12-07T09:35:10.063958+00:00", "meta": {"OBJECT_NAME": "FENGYUN 1C DEB", "OBJECT_ID": "1999-025QD", "EPOCH": "2025-12-06T22:26:57.346080", "MEAN_MOTION": 13.76285486, "ECCENTRICITY": 0.01756075, "INCLINATION": 99.2375, "RA_OF_ASC_NODE": 327.8326, "ARG_OF_PERICENTER": 109.1217, "MEAN_ANOMALY": 307.025, "EPHEMERIS_TYPE": 0, "CLASSIFICATION_TYPE": "U", "NORAD_CAT_ID": 30076, "ELEMENT_SET_NO": 999, "REV_AT_EPOCH": 94814, "BSTAR": 0.00041252325, "MEAN_MOTION_DOT": 4.09e-06, "MEAN_MOTION_DDOT": 0}, "tle": {"line1": "1 30076U 99025QD  25340.93538595  .00000409  00000+0  41252-3 0  9991", "line2": "2 30076  99.2375 327.8326 0175607 109.1217 307.0250 13.76285486948144"}}, "geometry": {"type": "Point", "coordinates": [145.61570890718767, -15.958021114425968]}}, {"type": "Feature", "properties": {"norad_id": 30077, "name": "FENGYUN 1C DEB", "group": "fengyun-1c-debris", "lat": -65.32240325218373, "lon": 157.6189292250042, "alt_km": 864.1984979070803, "timestamp": "2025-12-07T09:35:10.063968+00:00", "meta": {"OBJECT_NAME": "FENGYUN 1C DEB", "OBJECT_ID": "1999-025QE", "EPOCH": "2025-12-06T21:02:39.054624", "MEAN_MOTION": 14.07077414, "ECCENTRICITY": 0.00204242, "INCLINATION": 98.7583, "RA_OF_ASC_NODE": 356.7165, "ARG_OF_PERICENTER": 281.5658, "MEAN_ANOMALY": 199.6993, "EPHEMERIS_TYPE": 0, "CLASSIFICATION_TYPE": "U", "NORAD_CAT_ID": 30077, "ELEMENT_SET_NO": 999, "REV_AT_EPOCH": 97030, "BSTAR": 6.8055825e-05, "MEAN_MOTION_DOT": 7.1e-07, "MEAN_MOTION_DDOT": 0}, "tle": {"line1": "1 30077U 99025QE  25340.87684091  .00000071  00000+0  68056-4 0  9995", "line2": "2 30077  98.7583 356.7165 0020424 281.5658 199.6993 14.07077414970309"}}, "geometry": {"type": "Point", "coordinates": [157.6189292250042, -65.32240325218373]}}, {"type": "Feature", "properties": {"norad_id": 30078, "name": "FENGYUN 1C DEB", "group": "fengyun-1c-debris", "lat": -8.028634544995633, "lon": -125.00686431472164, "alt_km": 830.380304863691, "timestamp": "2025-12-07T09:35:10.063979+00:00", "meta": {"OBJECT_NAME": "FENGYUN 1C DEB", "OBJECT_ID": "1999-025QF", "EPOCH": "2025-12-06T19:45:04.379904", "MEAN_MOTION": 14.2308442, "ECCENTRICITY": 0.00525659, "INCLINATION": 98.8326, "RA_OF_ASC_NODE": 55.6717, "ARG_OF_PERICENTER": 297.7546, "MEAN_ANOMALY": 179.2459, "EPHEMERIS_TYPE": 0, "CLASSIFICATION_TYPE": "U", "NORAD_CAT_ID": 30078, "ELEMENT_SET_NO": 999, "REV_AT_EPOCH": 97029, "BSTAR": 0.0022122852, "MEAN_MOTION_DOT": 5.019e-05, "MEAN_MOTION_DDOT": 0}, "tle": {"line1": "1 30078U 99025QF  25340.82296736  .00005019  00000+0  22123-2 0  9996", "line2": "2 30078  98.8326  55.6717 0052565 297.7546 179.2459 14.23084420970292"}}, "geometry": {"type": "Point", "coordinates": [-125.00686431472164, -8.028634544995633]}}, {"type": "Feature", "properties": {"norad_id": 30079, "name": "FENGYUN 1C DEB", "group": "fengyun-1c-debris", "lat": -5.989334751607785, "lon": 37.952029445841845, "alt_km": 847.2764357497454, "timestamp": "2025-12-07T09:35:10.063988+00:00", "meta": {"OBJECT_NAME": "FENGYUN 1C DEB", "OBJECT_ID": "1999-025QG", "EPOCH": "2025-12-06T17:02:51.590976", "MEAN_MOTION": 14.00788863, "ECCENTRICITY": 0.00846862, "INCLINATION": 99.0366, "RA_OF_ASC_NODE": 36.3139, "ARG_OF_PERICENTER": 316.0008, "MEAN_ANOMALY": 164.3003, "EPHEMERIS_TYPE": 0, "CLASSIFICATION_TYPE": "U", "NORAD_CAT_ID": 30079, "ELEMENT_SET_NO": 999, "REV_AT_EPOCH": 96453, "BSTAR": 0.00036443798, "MEAN_MOTION_DOT": 5.16e-06, "MEAN_MOTION_DDOT": 0}, "tle": {"line1": "1 30079U 99025QG  25340.71031934  .00000516  00000+0  36444-3 0  9991", "line2": "2 30079  99.0366  36.3139 0084686 316.0008 164.3003 14.00788863964538"}}, "geometry": {"type": "Point", "coordinates": [37.952029445841845, -5.989334751607785]}}, {"type": "Feature", "properties": {"norad_id": 30080, "name": "FENGYUN 1C DEB", "group": "fengyun-1c-debris", "lat": -46.483236918587465, "lon": 132.81227133568783, "alt_km": 948.166316012801, "timestamp": "2025-12-07T09:35:10.063999+00:00", "meta": {"OBJECT_NAME": "FENGYUN 1C DEB", "OBJECT_ID": "1999-025QH", "EPOCH": "2025-12-06T22:33:57.815136", "MEAN_MOTION": 14.10811418, "ECCENTRICITY": 0.01339296, "INCLINATION": 98.6977, "RA_OF_ASC_NODE": 321.6451, "ARG_OF_PERICENTER": 76.9442, "MEAN_ANOMALY": 338.6389, "EPHEMERIS_TYPE": 0, "CLASSIFICATION_TYPE": "U", "NORAD_CAT_ID": 30080, "ELEMENT_SET_NO": 999, "REV_AT_EPOCH": 97156, "BSTAR": 0.00047004445, "MEAN_MOTION_DOT": 8.74e-06, "MEAN_MOTION_DDOT": 0}, "tle": {"line1": "1 30080U 99025QH  25340.94025249  .00000874  00000+0  47004-3 0  9991", "line2": "2 30080  98.6977 321.6451 0133929  76.9442 338.6389 14.10811418971567"}}, "geometry": {"type": "Point", "coordinates": [132.81227133568783, -46.483236918587465]}}]}